STARLINK-36719          
1 67648U 26022A   26062.24639498  .00282406  00000+0  18250-2 0  9993
2 67648  97.2826  95.8906 0001244  51.8110 308.3267 15.75283115  4530
STARLINK-36342          
1 67649U 26022B   26062.24568758  .00249191  00000+0  16171-2 0  9998
2 67649  97.2832  95.8926 0001124  59.2411 300.8964 15.75277629  4537
STARLINK-36703          
1 67650U 26022C   26062.05404630  .00178193  00000+0  11671-2 0  9990
2 67650  97.2825  95.6922 0001361  95.9088 264.2333 15.75263156  4505
STARLINK-36696          
1 67651U 26022D   26062.05228250  .00177624  00000+0  11634-2 0  9990
2 67651  97.2825  95.6950 0001407  92.8378 267.3048 15.75263482  4505
STARLINK-36699          
1 67652U 26022E   26062.05157757  .00334489  00000+0  21462-2 0  9998
2 67652  97.2831  95.6971 0001087 108.3939 251.7444 15.75302558  4501
STARLINK-36694          
1 67653U 26022F   26062.04945990  .00236060  00000+0  15297-2 0  9997
2 67653  97.2809  95.6980 0000375   3.8526 356.2742 15.75347416  4501
STARLINK-36620          
1 67654U 26022G   26062.50001156  .00143217  00000+0  94709-3 0  9993
2 67654  97.2837  96.1724 0001180  92.5998 302.7237 15.75140069  5891
STARLINK-36720          
1 67655U 26022H   26062.04734310  .00270736  00000+0  17506-2 0  9994
2 67655  97.2834  95.7016 0002140 129.3368 230.8087 15.75301509  4504
STARLINK-36688          
1 67656U 26022J   26062.04663630  .00298013  00000+0  19198-2 0  9998
2 67656  97.2839  95.7025 0001809 138.2611 221.8792 15.75311607  4504
STARLINK-36706          
1 67657U 26022K   26062.04522481  .00408140  00000+0  25880-2 0  9996
2 67657  97.2827  95.7032 0002333 135.9598 224.1854 15.75373069  4506
STARLINK-36701          
1 67658U 26022L   26062.04416440  .00191554  00000+0  12532-2 0  9992
2 67658  97.2840  95.7070 0001799 122.0200 238.1240 15.75252047  4502
STARLINK-36642          
1 67659U 26022M   26062.04310751  .00263131  00000+0  17033-2 0  9993
2 67659  97.2833  95.7078 0001269 132.2511 227.8862 15.75296666  4503
